STARLINK-4693           
1 53605U 22104T   26155.16670139  .00622782  00000+0  24006-2 0  9990
2 53605  53.2147 193.2191 0000745  87.1432 158.0076 15.85177944  5924
STARLINK-4590           
1 53606U 22104U   26154.47213890  .00000069  00000+0  22460-4 0  9993
2 53606  53.1946 209.1250 0001460 155.6221 204.4840 15.08834593208583
STARLINK-4591           
1 53607U 22104V   26154.79735268 -.00004066  00000+0 -23747-3 0  9998
2 53607  53.1796 212.5999 0000985  61.8561 298.2530 15.08844092208684
STARLINK-4647           
1 53608U 22104W   26152.42606129  .00000257  00000+0  34255-4 0  9993
2 53608  53.1906 218.3909 0001228  89.0113 271.1019 15.08835981208273
STARLINK-4660           
1 53609U 22104X   26154.43298124  .00000086  00000+0  23509-4 0  9999
2 53609  53.1874 213.8836 0001371  74.3405 285.7738 15.08837576208638
STARLINK-4610           
1 53610U 22104Y   26154.47307126 -.00001786  00000+0 -94094-4 0  9995
2 53610  53.1915 209.1268 0002134 177.6264 182.4738 15.08849580208586
STARLINK-4658           
1 53612U 22104AA  26155.16670139  .00007915  00000+0  51480-3 0  9990
2 53612  53.1768 205.9602 0001248  93.9866 100.9722 15.08839408  5832
STARLINK-4655           
1 53613U 22104AB  26154.47581492  .00000255  00000+0  34134-4 0  9995
2 53613  53.1871 209.1383 0001166  77.1392 282.9730 15.08839303208588
STARLINK-4605           
1 53616U 22104AE  26154.73061532 -.00008679  00000+0 -52733-3 0  9999
2 53616  53.1820 197.7285 0001506  46.2379 313.8737 15.08876569208876
STARLINK-4609           
1 53619U 22104AH  26154.32860088 -.00001274  00000+0 -61989-4 0  9998
2 53619  53.1870 209.6484 0001279  92.2499 267.8640 15.08835036208560
STARLINK-4615           
1 53620U 22104AJ  26154.64499403  .00002820  00000+0  19476-3 0  9993
2 53620  53.1827 208.0676 0000973  64.5574 295.5518 15.08926521208726
STARLINK-4608           
1 53621U 22104AK  26154.78858783  .00000629  00000+0  57606-4 0  9992
2 53621  53.1794 207.5271 0000663 137.7749 222.3294 15.08836393208634
STARLINK-4568           
1 53622U 22104AL  26154.29174254 -.00000416  00000+0 -80347-5 0  9998
2 53622  53.1956 209.4189 0002003 130.7433 229.3733 15.08836258208676
STARLINK-4573           
1 53623U 22104AM  26154.45005296  .00001475  00000+0  11083-3 0  9999
2 53623  53.1821 208.9877 0001313 150.4461 209.6605 15.08805790208697
STARLINK-4596           
1 53624U 22104AN  26154.70393065 -.00001613  00000+0 -83255-4 0  9999
2 53624  53.1872 207.6868 0001427 139.6941 220.4157 15.08841200208732
STARLINK-4554           
1 53626U 22104AQ  26154.42790913 -.00001092  00000+0 -50510-4 0  9992
2 53626  53.1945 208.8461 0002992 143.4843 216.6354 15.08832398208700
STARLINK-4595           
1 53627U 22104AR  26154.43528103 -.00000169  00000+0  74736-5 0  9994
2 53627  53.1829 208.8887 0001085  84.7780 275.3335 15.08836220208702
STARLINK-4600           
1 53628U 22104AS  26154.15556850  .00001065  00000+0  84966-4 0  9994
2 53628  53.1880 209.9915 0001222  98.3376 261.7755 15.08846952208662
STARLINK-4602           
1 53629U 22104AT  26154.43158282  .00005686  00000+0  37471-3 0  9994
2 53629  53.1928 208.8668 0002095  57.6064 302.5130 15.08873106208707
STARLINK-4598           
1 53630U 22104AU  26154.73159053  .00000607  00000+0  56217-4 0  9994
2 53630  53.1926 197.9138 0002055  59.6004 300.5191 15.08843239209057
STARLINK-4599           
1 53631U 22104AV  26154.81430007  .00000452  00000+0  46504-4 0  9991
2 53631  53.1850 206.9934 0001244  51.7481 308.3623 15.08838452208764
STARLINK-4606           
1 53632U 22104AW  26154.32583057 -.00002050  00000+0 -11074-3 0  9993
2 53632  53.1868 199.6515 0001266  77.0730 283.0403 15.08847608209151
STARLINK-4593           
1 53633U 22104AX  26154.32951735 -.00000581  00000+0 -18421-4 0  9997
2 53633  53.1869 199.6726 0001097 104.1867 255.9247 15.08840512208826
STARLINK-4592           
1 53634U 22104AY  26154.31846417 -.00000819  00000+0 -33387-4 0  9999
2 53634  53.1893 199.5991 0001229  88.8924 271.2209 15.08839974209152
STARLINK-4586           
1 53636U 22104BA  26154.44359089  .00026113  00000+0  16506-2 0  9994
2 53636  53.1839 198.9588 0001208 143.1490 216.9585 15.08885467209172
STARLINK-4396           
1 53637U 22104BB  26154.27898204 -.00000050  00000+0  14983-4 0  9995
2 53637  53.1963 200.0601 0001718  35.7400 324.3706 15.08835127209149
STARLINK-4594           
1 53638U 22104BC  26154.29267704 -.00000289  00000+0 -58217-7 0  9999
2 53638  53.1827 199.4460 0001951 113.7224 246.3973 15.08833692209158
STARLINK-4422           
1 53639U 22104BD  26155.16670139  .00095558  00000+0  25616-2 0  9990
2 53639  53.2167 191.0073 0001116  89.3015 159.8214 15.37221651  5770
STARLINK-4597           
1 53640U 22104BE  26154.43621087  .00001274  00000+0  98140-4 0  9995
2 53640  53.1839 198.9135 0001330  86.9004 273.2140 15.08829025209177
STARLINK-4588           
1 53641U 22104BF  26154.44725940  .00000166  00000+0  28515-4 0  9998
2 53641  53.1829 198.9794 0001150  82.7208 277.3915 15.08838680209170
