OBJECT_NAME,OBJECT_ID,EPOCH,MEAN_MOTION,ECCENTRICITY,INCLINATION,RA_OF_ASC_NODE,ARG_OF_PERICENTER,MEAN_ANOMALY,EPHEMERIS_TYPE,CLASSIFICATION_TYPE,NORAD_CAT_ID,ELEMENT_SET_NO,REV_AT_EPOCH,BSTAR,MEAN_MOTION_DOT,MEAN_MOTION_DDOT
STARLINK-4693,2022-104T,2026-06-04T04:00:03.000096,15.85177944,.0000745,53.2147,193.2191,87.1432,158.0076,0,U,53605,999,592,.24006E-2,.622782E-2,0
STARLINK-4590,2022-104U,2026-06-03T11:19:52.800960,15.08834593,.00014602,53.1946,209.1250,155.6221,204.4840,0,U,53606,999,20858,.22460326E-4,.69E-6,0
STARLINK-4591,2022-104V,2026-06-03T19:08:11.271552,15.08844092,.00009857,53.1796,212.5999,61.8561,298.2530,0,U,53607,999,20868,-.23746744E-3,-.4066E-4,0
STARLINK-4647,2022-104W,2026-06-01T10:13:31.695456,15.08835981,.00012282,53.1906,218.3909,89.0113,271.1019,0,U,53608,999,20827,.34254796E-4,.257E-5,0
STARLINK-4660,2022-104X,2026-06-03T10:23:29.579136,15.08837576,.0001371,53.1874,213.8836,74.3405,285.7738,0,U,53609,999,20863,.23508715E-4,.86E-6,0
STARLINK-4610,2022-104Y,2026-06-03T11:21:13.356864,15.08849580,.00021346,53.1915,209.1268,177.6264,182.4738,0,U,53610,999,20858,-.94093972E-4,-.1786E-4,0
STARLINK-4658,2022-104AA,2026-06-04T04:00:03.000096,15.08839408,.0001248,53.1768,205.9602,93.9866,100.9722,0,U,53612,999,583,.5148E-3,.7915E-4,0
STARLINK-4655,2022-104AB,2026-06-03T11:25:10.409088,15.08839303,.0001166,53.1871,209.1383,77.1392,282.9730,0,U,53613,999,20858,.34134E-4,.255E-5,0
STARLINK-4605,2022-104AE,2026-06-03T17:32:05.163648,15.08876569,.00015067,53.1820,197.7285,46.2379,313.8737,0,U,53616,999,20887,-.52733081E-3,-.8679E-4,0
STARLINK-4609,2022-104AH,2026-06-03T07:53:11.116032,15.08835036,.0001279,53.1870,209.6484,92.2499,267.8640,0,U,53619,999,20856,-.61989E-4,-.1274E-4,0
STARLINK-4615,2022-104AJ,2026-06-03T15:28:47.484192,15.08926521,.00009731,53.1827,208.0676,64.5574,295.5518,0,U,53620,999,20872,.194756E-3,.282E-4,0
STARLINK-4608,2022-104AK,2026-06-03T18:55:33.988512,15.08836393,.00006634,53.1794,207.5271,137.7749,222.3294,0,U,53621,999,20863,.5760591E-4,.629E-5,0
STARLINK-4568,2022-104AL,2026-06-03T07:00:06.555456,15.08836258,.00020038,53.1956,209.4189,130.7433,229.3733,0,U,53622,999,20867,-.80347E-5,-.416E-5,0
STARLINK-4573,2022-104AM,2026-06-03T10:48:04.575744,15.08805790,.0001313,53.1821,208.9877,150.4461,209.6605,0,U,53623,999,20869,.11083E-3,.1475E-4,0
STARLINK-4596,2022-104AN,2026-06-03T16:53:39.608160,15.08841200,.00014279,53.1872,207.6868,139.6941,220.4157,0,U,53624,999,20873,-.83254666E-4,-.1613E-4,0
STARLINK-4554,2022-104AQ,2026-06-03T10:16:11.348832,15.08832398,.00029928,53.1945,208.8461,143.4843,216.6354,0,U,53626,999,20870,-.5051008E-4,-.1092E-4,0
STARLINK-4595,2022-104AR,2026-06-03T10:26:48.280992,15.08836220,.00010854,53.1829,208.8887,84.7780,275.3335,0,U,53627,999,20870,.7473604E-5,-.169E-5,0
STARLINK-4600,2022-104AS,2026-06-03T03:44:01.118400,15.08846952,.00012228,53.1880,209.9915,98.3376,261.7755,0,U,53628,999,20866,.8496618E-4,.1065E-4,0
STARLINK-4602,2022-104AT,2026-06-03T10:21:28.755648,15.08873106,.00020957,53.1928,208.8668,57.6064,302.5130,0,U,53629,999,20870,.37470511E-3,.5686E-4,0
STARLINK-4598,2022-104AU,2026-06-03T17:33:29.421792,15.08843239,.00020551,53.1926,197.9138,59.6004,300.5191,0,U,53630,999,20905,.56217486E-4,.607E-5,0
STARLINK-4599,2022-104AV,2026-06-03T19:32:35.526048,15.08838452,.00012449,53.1850,206.9934,51.7481,308.3623,0,U,53631,999,20876,.46503574E-4,.452E-5,0
STARLINK-4606,2022-104AW,2026-06-03T07:49:11.761248,15.08847608,.0001266,53.1868,199.6515,77.0730,283.0403,0,U,53632,999,20915,-.11074E-3,-.205E-4,0
STARLINK-4593,2022-104AX,2026-06-03T07:54:30.299040,15.08840512,.0001097,53.1869,199.6726,104.1867,255.9247,0,U,53633,999,20882,-.18421E-4,-.581E-5,0
STARLINK-4592,2022-104AY,2026-06-03T07:38:35.304288,15.08839974,.0001229,53.1893,199.5991,88.8924,271.2209,0,U,53634,999,20915,-.33387E-4,-.819E-5,0
STARLINK-4586,2022-104BA,2026-06-03T10:38:46.252896,15.08885467,.0001208,53.1839,198.9588,143.1490,216.9585,0,U,53636,999,20917,.16506489E-2,.26113E-3,0
STARLINK-4396,2022-104BB,2026-06-03T06:41:44.048256,15.08835127,.00017181,53.1963,200.0601,35.7400,324.3706,0,U,53637,999,20914,.14982519E-4,-.5E-6,0
STARLINK-4594,2022-104BC,2026-06-03T07:01:27.296256,15.08833692,.0001951,53.1827,199.4460,113.7224,246.3973,0,U,53638,999,20915,-.58217E-7,-.289E-5,0
STARLINK-4422,2022-104BD,2026-06-04T04:00:03.000096,15.37221651,.0001116,53.2167,191.0073,89.3015,159.8214,0,U,53639,999,577,.25616E-2,.95558E-3,0
STARLINK-4597,2022-104BE,2026-06-03T10:28:08.619168,15.08829025,.00013304,53.1839,198.9135,86.9004,273.2140,0,U,53640,999,20917,.9813994E-4,.1274E-4,0
STARLINK-4588,2022-104BF,2026-06-03T10:44:03.212160,15.08838680,.000115,53.1829,198.9794,82.7208,277.3915,0,U,53641,999,20917,.28515397E-4,.166E-5,0
